[{"OBJECT_NAME":"YAOGAN-30 07A","OBJECT_ID":"2020-021A","EPOCH":"2026-03-09T13:20:42.408096","MEAN_MOTION":15.02093562,"ECCENTRICITY":0.0004392,"INCLINATION":34.9941,"RA_OF_ASC_NODE":97.9026,"ARG_OF_PERICENTER":231.7665,"MEAN_ANOMALY":128.2648,"EPHEMERIS_TYPE":0,"CLASSIFICATION_TYPE":"U","NORAD_CAT_ID":45460,"ELEMENT_SET_NO":999,"REV_AT_EPOCH":32556,"BSTAR":0.00035264,"MEAN_MOTION_DOT":4.701e-5,"MEAN_MOTION_DDOT":0},{"OBJECT_NAME":"STARLINK-5964","OBJECT_ID":"2023-042Z","EPOCH":"2026-03-09T00:25:17.622048","MEAN_MOTION":15.02616862,"ECCENTRICITY":0.00015763,"INCLINATION":43.0047,"RA_OF_ASC_NODE":59.3853,"ARG_OF_PERICENTER":249.2966,"MEAN_ANOMALY":110.7707,"EPHEMERIS_TYPE":0,"CLASSIFICATION_TYPE":"U","NORAD_CAT_ID":56009,"ELEMENT_SET_NO":999,"REV_AT_EPOCH":16281,"BSTAR":-0.001285248,"MEAN_MOTION_DOT":-0.00017559,"MEAN_MOTION_DDOT":0}]
